{
  "type": "FeatureCollection",
  "features": [
    {
      "type": "Feature",
      "properties": {
        "norad_id": 42939,
        "name": "COSMOS 2522 (752)",
        "group": "gnss",
        "lat": -3.4764321310914537,
        "lon": 20.075419195399196,
        "alt_km": 19118.51923739056,
        "timestamp": "2025-12-08T08:59:01.008670+00:00",
        "meta_object_name": "COSMOS 2522 (752)",
        "meta_object_id": "2017-055A",
        "meta_epoch": "2025-12-07T04:42:21.698208",
        "meta_mean_motion": 2.13101873,
        "meta_eccentricity": 0.00064632,
        "meta_inclination": 64.0758,
        "meta_ra_of_asc_node": 198.418,
        "meta_arg_of_pericenter": 225.3159,
        "meta_mean_anomaly": 134.7149,
        "meta_ephemeris_type": 0,
        "meta_classification_type": "U",
        "meta_norad_cat_id": 42939,
        "meta_element_set_no": 999,
        "meta_rev_at_epoch": 6388,
        "meta_bstar": 0,
        "meta_mean_motion_dot": 6.1e-07,
        "meta_mean_motion_ddot": 0,
        "tle_line1": "1 42939U 17055A   25341.19608447  .00000061  00000+0  00000+0 0  9994",
        "tle_line2": "2 42939  64.0758 198.4180 0006463 225.3159 134.7149  2.13101873 63886"
      },
      "geometry": {
        "type": "Point",
        "coordinates": [
          20.075419195399196,
          -3.4764321310914537
        ]
      }
    },
    {
      "type": "Feature",
      "properties": {
        "norad_id": 42965,
        "name": "QZS-4 (QZSS/PRN 195)",
        "group": "gnss",
        "lat": 7.4363400921279625,
        "lon": -5.200057193412092,
        "alt_km": 36115.488136954,
        "timestamp": "2025-12-08T08:59:01.008682+00:00",
        "meta_object_name": "QZS-4 (QZSS/PRN 195)",
        "meta_object_id": "2017-062A",
        "meta_epoch": "2025-12-07T21:05:53.129760",
        "meta_mean_motion": 1.0025358,
        "meta_eccentricity": 0.07523887,
        "meta_inclination": 40.2283,
        "meta_ra_of_asc_node": 345.9325,
        "meta_arg_of_pericenter": 271.4244,
        "meta_mean_anomaly": 272.796,
        "meta_ephemeris_type": 0,
        "meta_classification_type": "U",
        "meta_norad_cat_id": 42965,
        "meta_element_set_no": 999,
        "meta_rev_at_epoch": 2988,
        "meta_bstar": 0,
        "meta_mean_motion_dot": -3.49e-06,
        "meta_mean_motion_ddot": 0,
        "tle_line1": "1 42965U 17062A   25341.87908715 -.00000349  00000+0  00000+0 0  9997",
        "tle_line2": "2 42965  40.2283 345.9325 0752388 271.4244 272.7960  1.00253580 29889"
      },
      "geometry": {
        "type": "Point",
        "coordinates": [
          -5.200057193412092,
          7.4363400921279625
        ]
      }
    },
    {
      "type": "Feature",
      "properties": {
        "norad_id": 43001,
        "name": "BEIDOU-3 M1 (C19)",
        "group": "gnss",
        "lat": -56.361471826440685,
        "lon": -27.371037082637447,
        "alt_km": 21514.05550233295,
        "timestamp": "2025-12-08T08:59:01.008694+00:00",
        "meta_object_name": "BEIDOU-3 M1 (C19)",
        "meta_object_id": "2017-069A",
        "meta_epoch": "2025-12-07T10:33:38.997216",
        "meta_mean_motion": 1.86230818,
        "meta_eccentricity": 0.00090499,
        "meta_inclination": 56.5227,
        "meta_ra_of_asc_node": 69.4088,
        "meta_arg_of_pericenter": 303.7178,
        "meta_mean_anomaly": 56.2144,
        "meta_ephemeris_type": 0,
        "meta_classification_type": "U",
        "meta_norad_cat_id": 43001,
        "meta_element_set_no": 999,
        "meta_rev_at_epoch": 5503,
        "meta_bstar": 0,
        "meta_mean_motion_dot": -4.4e-07,
        "meta_mean_motion_ddot": 0,
        "tle_line1": "1 43001U 17069A   25341.44003469 -.00000044  00000+0  00000+0 0  9993",
        "tle_line2": "2 43001  56.5227  69.4088 0009049 303.7178  56.2144  1.86230818 55035"
      },
      "geometry": {
        "type": "Point",
        "coordinates": [
          -27.371037082637447,
          -56.361471826440685
        ]
      }
    },
    {
      "type": "Feature",
      "properties": {
        "norad_id": 43002,
        "name": "BEIDOU-3 M2 (C20)",
        "group": "gnss",
        "lat": -41.33703287003452,
        "lon": 33.8852175875302,
        "alt_km": 21516.82062531678,
        "timestamp": "2025-12-08T08:59:01.008705+00:00",
        "meta_object_name": "BEIDOU-3 M2 (C20)",
        "meta_object_id": "2017-069B",
        "meta_epoch": "2025-12-07T09:04:52.679136",
        "meta_mean_motion": 1.86230635,
        "meta_eccentricity": 0.00063308,
        "meta_inclination": 56.5218,
        "meta_ra_of_asc_node": 69.4472,
        "meta_arg_of_pericenter": 331.2047,
        "meta_mean_anomaly": 28.7785,
        "meta_ephemeris_type": 0,
        "meta_classification_type": "U",
        "meta_norad_cat_id": 43002,
        "meta_element_set_no": 999,
        "meta_rev_at_epoch": 5502,
        "meta_bstar": 0,
        "meta_mean_motion_dot": -4.4e-07,
        "meta_mean_motion_ddot": 0,
        "tle_line1": "1 43002U 17069B   25341.37838749 -.00000044  00000+0  00000+0 0  9993",
        "tle_line2": "2 43002  56.5218  69.4472 0006330 331.2047  28.7785  1.86230635 55025"
      },
      "geometry": {
        "type": "Point",
        "coordinates": [
          33.8852175875302,
          -41.33703287003452
        ]
      }
    },
    {
      "type": "Feature",
      "properties": {
        "norad_id": 43055,
        "name": "GSAT0215 (GALILEO 19)",
        "group": "gnss",
        "lat": -1.0837855790027757,
        "lon": -133.98707552497723,
        "alt_km": 23218.696317967602,
        "timestamp": "2025-12-08T08:59:01.008717+00:00",
        "meta_object_name": "GSAT0215 (GALILEO 19)",
        "meta_object_id": "2017-079A",
        "meta_epoch": "2025-12-06T00:43:24.455424",
        "meta_mean_motion": 1.70473755,
        "meta_eccentricity": 0.00048437,
        "meta_inclination": 55.1369,
        "meta_ra_of_asc_node": 226.8228,
        "meta_arg_of_pericenter": 284.5496,
        "meta_mean_anomaly": 75.4946,
        "meta_ephemeris_type": 0,
        "meta_classification_type": "U",
        "meta_norad_cat_id": 43055,
        "meta_element_set_no": 999,
        "meta_rev_at_epoch": 4969,
        "meta_bstar": 0,
        "meta_mean_motion_dot": 3.4e-07,
        "meta_mean_motion_ddot": 0,
        "tle_line1": "1 43055U 17079A   25340.03014416  .00000034  00000+0  00000+0 0  9999",
        "tle_line2": "2 43055  55.1369 226.8228 0004843 284.5496  75.4946  1.70473755 49697"
      },
      "geometry": {
        "type": "Point",
        "coordinates": [
          -133.98707552497723,
          -1.0837855790027757
        ]
      }
    },
    {
      "type": "Feature",
      "properties": {
        "norad_id": 43056,
        "name": "GSAT0216 (GALILEO 20)",
        "group": "gnss",
        "lat": 0.1439586640487417,
        "lon": 46.6674388263016,
        "alt_km": 23228.01819834511,
        "timestamp": "2025-12-08T08:59:01.008728+00:00",
        "meta_object_name": "GSAT0216 (GALILEO 20)",
        "meta_object_id": "2017-079B",
        "meta_epoch": "2025-12-07T11:52:26.276448",
        "meta_mean_motion": 1.7047388,
        "meta_eccentricity": 0.00025242,
        "meta_inclination": 55.1322,
        "meta_ra_of_asc_node": 226.7823,
        "meta_arg_of_pericenter": 318.0138,
        "meta_mean_anomaly": 42.0613,
        "meta_ephemeris_type": 0,
        "meta_classification_type": "U",
        "meta_norad_cat_id": 43056,
        "meta_element_set_no": 999,
        "meta_rev_at_epoch": 4973,
        "meta_bstar": 0,
        "meta_mean_motion_dot": 2.4e-07,
        "meta_mean_motion_ddot": 0,
        "tle_line1": "1 43056U 17079B   25341.49474857  .00000024  00000+0  00000+0 0  9999",
        "tle_line2": "2 43056  55.1322 226.7823 0002524 318.0138  42.0613  1.70473880 49732"
      },
      "geometry": {
        "type": "Point",
        "coordinates": [
          46.6674388263016,
          0.1439586640487417
        ]
      }
    },
    {
      "type": "Feature",
      "properties": {
        "norad_id": 43057,
        "name": "GSAT0217 (GALILEO 21)",
        "group": "gnss",
        "lat": 35.02640586832636,
        "lon": -104.00708803777688,
        "alt_km": 23214.141273067744,
        "timestamp": "2025-12-08T08:59:01.008739+00:00",
        "meta_object_name": "GSAT0217 (GALILEO 21)",
        "meta_object_id": "2017-079C",
        "meta_epoch": "2025-12-05T22:56:13.502976",
        "meta_mean_motion": 1.70473847,
        "meta_eccentricity": 0.00027948,
        "meta_inclination": 55.1308,
        "meta_ra_of_asc_node": 226.8227,
        "meta_arg_of_pericenter": 341.4584,
        "meta_mean_anomaly": 18.6294,
        "meta_ephemeris_type": 0,
        "meta_classification_type": "U",
        "meta_norad_cat_id": 43057,
        "meta_element_set_no": 999,
        "meta_rev_at_epoch": 4969,
        "meta_bstar": 0,
        "meta_mean_motion_dot": 3.5e-07,
        "meta_mean_motion_ddot": 0,
        "tle_line1": "1 43057U 17079C   25339.95571184  .00000035  00000+0  00000+0 0  9991",
        "tle_line2": "2 43057  55.1308 226.8227 0002794 341.4584  18.6294  1.70473847 49692"
      },
      "geometry": {
        "type": "Point",
        "coordinates": [
          -104.00708803777688,
          35.02640586832636
        ]
      }
    }
  ]
}